SKYNET 5A               
1 30794U 07007B   22193.19424251 -.00000271  00000+0  00000+0 0  9991
2 30794   2.0180  88.6373 0003265  18.0734 348.4826  1.00271957 56301
ANIK F3                 
1 31102U 07009A   22193.53579796  .00000000  00000+0  00000+0 0  9999
2 31102   0.0152  73.7962 0002396  30.4856 260.2893  1.00271876 32161
ASTRA 1L                
1 31306U 07016A   22193.47870024  .00000121  00000+0  00000+0 0  9998
2 31306   0.0621 308.7124 0001015 119.6774  53.4827  1.00274169 30621
GALAXY 17 (G-17)        
1 31307U 07016B   22193.50465966 -.00000173  00000+0  00000+0 0  9996
2 31307   0.0152  27.0627 0003099  93.8822 260.0989  1.00270901 55409
ZHONGXING-6B            
1 31800U 07031A   22193.53243605 -.00000361  00000+0  00000+0 0  9997
2 31800   0.0250 266.5156 0004099 205.9990 125.0600  1.00268190 55032
DIRECTV 10              
1 31862U 07032A   22193.55530177 -.00000101  00000+0  00000+0 0  9993
2 31862   0.0197 208.5751 0000025 315.2769 223.6733  1.00266365 31196
SPACEWAY 3              
1 32018U 07036A   22193.50465966 -.00000150  00000+0  00000+0 0  9993
2 32018   0.2851  88.8622 0000325  66.2052 222.0177  1.00270945 32157
BSAT-3A                 
1 32019U 07036B   22193.49682330 -.00000349  00000+0  00000+0 0  9998
2 32019   0.0771 248.6991 0002438 281.2324  49.1317  1.00270104 36122
OPTUS D2                
1 32252U 07044A   22193.57233792 -.00000183  00000+0  00000+0 0  9995
2 32252   0.0163 313.9394 0003939 155.5033 179.0290  1.00271767 54170
INTELSAT 11 (IS-11)     
1 32253U 07044B   22193.46631779 -.00000267  00000+0  00000+0 0  9994
2 32253   0.0174  32.8981 0001841 100.6092 281.7031  1.00270042 54098
WGS F1 (USA 195)        
1 32258U 07046A   22193.40049498  .00000042  00000+0  00000+0 0  9996
2 32258   0.0258  58.0629 0000389  56.0010 326.3999  1.00268398 37940
SKYNET 5B               
1 32294U 07056B   22193.26462052  .00000142  00000+0  00000+0 0  9997
2 32294   1.5885  89.1603 0003254  24.0935 297.2464  1.00269817 53795
ASTRA 4A (SIRIUS 4)     
1 32299U 07057A   22193.40049498  .00000034  00000+0  00000+0 0  9994
2 32299   0.0338 309.7177 0003144 159.0134 330.5101  1.00270275 37287
HORIZONS-2              
1 32388U 07063B   22193.48951309  .00000017  00000+0  00000+0 0  9992
2 32388   0.0228 303.0351 0009695  76.1690 160.6996  0.99831861 53427
THURAYA-3               
1 32404U 08001A   22193.49455608 -.00000303  00000+0  00000+0 0  9995
2 32404   4.0765  23.6184 0002966  77.2475 106.0300  1.00270224 53091
EXPRESS-AM33            
1 32478U 08003A   22193.27341000 -.00000089  00000+0  00000+0 0  9995
2 32478   1.1182  92.6632 0000791  43.8783 240.9247  1.00271400 39338
THOR 5                  
1 32487U 08006A   22193.25947569 -.00000007  00000+0  00000+0 0  9998
2 32487   0.0499 249.9091 0002509 221.4852 271.3911  1.00271665 52900
AMC-14                  
1 32708U 08011A   22193.26305091  .00000063  00000+0  00000+0 0  9990
2 32708  22.1038  37.8775 0039571   8.5006 355.7813  1.00274428 53760
DIRECTV 11              
1 32729U 08013A   22193.55869046 -.00000124  00000+0  00000+0 0  9991
2 32729   0.0041 126.2439 0000069 264.1893   1.9215  1.00267307 31193
ICO G1                  
1 32763U 08016A   22193.50465966 -.00000172  00000+0  00000+0 0  9993
2 32763   4.0463  26.7695 0002122  80.6921 271.7206  1.00270805 52148
VINASAT-1               
1 32767U 08018A   22193.50125479 -.00000327  00000+0  00000+0 0  9993
2 32767   0.0412 294.8653 0001881 185.4315 122.4600  1.00271064 52201
STAR ONE C2             
1 32768U 08018B   22193.54424282 -.00000275  00000+0  00000+0 0  9994
2 32768   0.0404  15.2490 0002817  98.5522 307.5192  1.00268768 52277
AMOS-3                  
1 32794U 08022A   22193.25886529 -.00000033  00000+0  00000+0 0  9994
2 32794   0.0199  42.5932 0003206  61.8455 274.7551  1.00271319 67942
GALAXY 18 (G-18)        
1 32951U 08024A   22193.52972926  .00000026  00000+0  00000+0 0  9999
2 32951   0.0147 345.5244 0003329 131.2946 241.2773  1.00272467 31452
CHINASAT 9 (ZX 9)       
1 33051U 08028A   22193.38174081 -.00000246  00000+0  00000+0 0  9990
2 33051   0.0211  83.9161 0004740  45.2304  30.7315  1.00271616 51648
SKYNET 5C               
1 33055U 08030A   22193.47102661 -.00000138  00000+0  00000+0 0  9992
2 33055   0.1143  63.8535 0004742  56.5626 321.6952  1.00270545 51563
TURKSAT 3A              
1 33056U 08030B   22193.26802133  .00000148  00000+0  00000+0 0  9991
2 33056   0.0159 112.6697 0005775   2.5370 313.4060  1.00271712 37959
INTELSAT 25 (IS-25)     
1 33153U 08034A   22193.46858500 -.00000222  00000+0  00000+0 0  9998
2 33153   0.0138 295.0975 0002757 187.8271 304.5947  1.00270523 51290
BADR-6                  
1 33154U 08034B   22193.48009545  .00000146  00000+0  00000+0 0  9992
2 33154   0.0468  40.6184 0005855  71.2612  17.2787  1.00275307 51363
ECHOSTAR 11             
1 33207U 08035A   22193.54670531 -.00000055  00000+0  00000+0 0  9998
2 33207   0.0542 279.5011 0003065 180.0880 277.6292  1.00270071 36835
SUPERBIRD-C2            
1 33274U 08038A   22193.56396848 -.00000251  00000+0  00000+0 0  9991
2 33274   0.0389 266.6853 0002298 213.6600 157.0486  1.00269857 91331
AMC-21                  
1 33275U 08038B   22193.52813986  .00000038  00000+0  00000+0 0  9997
2 33275   0.0368 305.1365 0003144 172.7873 237.6891  1.00270875 51090
INMARSAT 4-F3           
1 33278U 08039A   22193.56028413 -.00000141  00000+0  00000+0 0  9994
2 33278   3.3143  20.2606 0002754  98.8840 274.9771  1.00274030 32155
NIMIQ 4                 
1 33373U 08044A   22193.50465966 -.00000219  00000+0  00000+0 0  9994
2 33373   0.0206  61.6089 0001632  57.7344 270.6758  1.00269793 50581
GALAXY 19 (G-19)        
1 33376U 08045A   22193.56208476 -.00000138  00000+0  00000+0 0  9995
2 33376   0.0526 269.3876 0003279 210.1071 276.2770  1.00271827 50500
ASTRA 1M                
1 33436U 08057A   22193.47870024  .00000121  00000+0  00000+0 0  9990
2 33436   0.0538  96.6849 0005469  28.7242 356.4446  1.00273047 31334
CIEL-2                  
1 33453U 08063A   22193.56650128  .00000059  00000+0  00000+0 0  9997
2 33453   0.0209  91.1718 0003273  27.7633 246.5782  1.00271482 49733
EUTELSAT HOTBIRD 13C    
1 33459U 08065A   22193.35257727  .00000089  00000+0  00000+0 0  9993
2 33459   0.0416  33.6228 0006396  84.7013 311.8324  1.00274508 32945
EUTELSAT 48D            
1 33460U 08065B   22193.25712127 -.00000100  00000+0  00000+0 0  9999
2 33460   1.5227  92.3124 0004101  17.4007 260.4393  1.00270310 49555
FENGYUN 2E              
1 33463U 08066A   22193.56395189 -.00000209  00000+0  00000+0 0  9992
2 33463   5.9590  65.1736 0002914   9.0964 145.8263  1.00276631 49694
EXPRESS-AM44            
1 33595U 09007A   22191.67895733 -.00000080  00000+0  00000+0 0  9991
2 33595   0.0453 225.1231 0000997 302.8688 353.9962  1.00271332 49149
NSS-9                   
1 33749U 09008A   22193.56904756  .00000073  00000+0  00000+0 0  9990
2 33749   0.0376 307.9232 0002566 160.2775 210.1660  1.00272736 49138
EUTELSAT 33E            
1 33750U 09008B   22193.48149066  .00000157  00000+0  00000+0 0  9991
2 33750   0.0504  14.7207 0004229  93.7341  28.2907  1.00270872 49057
TELSTAR 11N             
1 34111U 09009A   22193.25215087 -.00000249  00000+0  00000+0 0  9999
2 34111   0.0271  46.5615 0001705  48.0064 248.7878  1.00264879 31830
EUTELSAT 10A            
1 34710U 09016A   22193.40049498  .00000070  00000+0  00000+0 0  9991
2 34710   0.0462  11.5075 0005386  98.6508 334.2618  1.00271795 26867
WGS F2 (USA 204)        
1 34713U 09017A   22193.48637388  .00000069  00000+0  00000+0 0  9992
2 34713   0.0277  59.1360 0000811  83.3984  20.4099  1.00270047 31228
SES-7 (PROTOSTAR 2)     
1 34941U 09027A   22193.50674271 -.00000344  00000+0  00000+0 0  9998
2 34941   0.0112  17.3106 0001040 157.6802  46.0473  1.00270094 48222
MEASAT-3A               
1 35362U 09032A   22193.38174081 -.00000240  00000+0  00000+0 0  9997
2 35362   0.0187 252.8307 0002563 270.7644 355.5878  1.00268731 47853
GOES 14                 
1 35491U 09033A   22193.55179255 -.00000091  00000+0  00000+0 0  9992
2 35491   0.3766  95.1843 0013151 114.2667 174.9626  1.00272185 47714
FM-5                    
1 35493U 09034A   22193.50465966 -.00000199  00000+0  00000+0 0  9996
2 35493   0.0140  16.8528 0000742  36.9090 332.1469  1.00270523 32240
TERRESTAR-1             
1 35496U 09035A   22193.54489689 -.00000057  00000+0  00000+0 0  9995
2 35496   3.2321  39.0939 0002626  73.8629 262.6135  1.00271889 47736
ASIASAT 5               
1 35696U 09042A   22193.49499208 -.00000306  00000+0  00000+0 0  9994
2 35696   0.0400 274.2596 0001518 186.2692 108.5106  1.00268218 47290
JCSAT-12 (JCSAT-RA)     
1 35755U 09044A   22193.50125479 -.00000327  00000+0  00000+0 0  9993
2 35755   0.0146  94.6997 0000755  59.7175  88.4515  1.00271045 47218
OPTUS D3                
1 35756U 09044B   22193.57772066 -.00000147  00000+0  00000+0 0  9991
2 35756   0.0464 323.0297 0003574 129.5382 201.8511  1.00269359 47168
NIMIQ 5                 
1 35873U 09050A   22193.53313131 -.00000255  00000+0  00000+0 0  9998
2 35873   0.0251 297.8846 0003283 193.2551 278.4842  1.00270309 46953
AMAZONAS 2              
1 35942U 09054A   22193.46274257 -.00000281  00000+0  00000+0 0  9995
2 35942   0.0319 137.5645 0006080 349.9788 268.3797  1.00271316 46789
COMSATBW-1              
1 35943U 09054B   22193.48750750  .00000025  00000+0  00000+0 0  9990
2 35943   0.1019  80.3127 0003304  39.4635  49.0994  1.00272665 46912
NSS-12                  
1 36032U 09058A   22193.48628668  .00000073  00000+0  00000+0 0  9999
2 36032   0.0101  35.6321 0003092  75.3591  51.4162  1.00271107 46527
THOR 6                  
1 36033U 09058B   22193.25947569 -.00000008  00000+0  00000+0 0  9998
2 36033   0.0218 113.7387 0002048   1.3526 267.5967  1.00271566 46605
